{
    "links": {
        "self": "http://www.neowsapp.com/rest/v1/neo/3878623?api_key=iIulBulltgU6a56xZRHN4H3l9WmuAYTsLGpBGhQ2"
    },
    "id": "3878623",
    "neo_reference_id": "3878623",
    "name": "(2019 TU5)",
    "designation": "2019 TU5",
    "nasa_jpl_url": "http://ssd.jpl.nasa.gov/sbdb.cgi?sstr=3878623",
    "absolute_magnitude_h": 24.6,
    "estimated_diameter": {
        "kilometers": {
            "estimated_diameter_min": 0.0319561887,
            "estimated_diameter_max": 0.0714562102
        },
        "meters": {
            "estimated_diameter_min": 31.9561886721,
            "estimated_diameter_max": 71.4562101727
        },
        "miles": {
            "estimated_diameter_min": 0.0198566489,
            "estimated_diameter_max": 0.0444008168
        },
        "feet": {
            "estimated_diameter_min": 104.8431420431,
            "estimated_diameter_max": 234.436392583
        }
    },
    "is_potentially_hazardous_asteroid": false,
    "close_approach_data": [
        {
            "close_approach_date": "2019-09-30",
            "close_approach_date_full": "2019-Sep-30 14:04",
            "epoch_date_close_approach": 1569852240000,
            "relative_velocity": {
                "kilometers_per_second": "20.4712773898",
                "kilometers_per_hour": "73696.5986033639",
                "miles_per_hour": "45792.2003932957"
            },
            "miss_distance": {
                "astronomical": "0.0438010607",
                "lunar": "17.0386126123",
                "kilometers": "6552545.384460709",
                "miles": "4071562.9010234242"
            },
            "orbiting_body": "Earth"
        }
    ],
    "orbital_data": {
        "orbit_id": "1",
        "orbit_determination_date": "2019-10-09 23:12:03",
        "first_observation_date": "2019-10-06",
        "last_observation_date": "2019-10-10",
        "data_arc_in_days": 4,
        "observations_used": 19,
        "orbit_uncertainty": "9",
        "minimum_orbit_intersection": ".0381308",
        "jupiter_tisserand_invariant": "2.990",
        "epoch_osculation": "2458764.5",
        "eccentricity": ".7377020935883816",
        "semi_major_axis": "2.526618139158027",
        "inclination": "8.363301723363824",
        "ascending_node_longitude": "353.6337651060047",
        "orbital_period": "1466.924768144535",
        "perihelion_distance": ".6627266482027697",
        "perihelion_argument": "297.3895107475996",
        "aphelion_distance": "4.390509630113285",
        "perihelion_time": "2458714.118017668142",
        "mean_anomaly": "12.36431072222635",
        "mean_motion": ".2454113583857147",
        "equinox": "J2000",
        "orbit_class": {
            "orbit_class_type": "APO",
            "orbit_class_description": "Near-Earth asteroid orbits which cross the Earth’s orbit similar to that of 1862 Apollo",
            "orbit_class_range": "a (semi-major axis) > 1.0 AU; q (perihelion) < 1.017 AU"
        }
    },
    "is_sentry_object": false
}